IRIDIUM 39              
1 25042U 97069D   25124.55963035  .00001117  00000+0  28752-3 0  9990
2 25042  86.3942 229.8209 0020115  93.2359 267.1147 14.49167289442648
IRIDIUM 38              
1 25043U 97069E   25124.61161203  .00000812  00000+0  26188-3 0  9997
2 25043  86.3949 251.4807 0001200 156.5854 203.5399 14.38078584439699
IRIDIUM 42              
1 25077U 97077A   25124.42500812  .00000775  00000+0  25839-3 0  9995
2 25077  86.3944 257.6782 0001457 100.9676 259.1685 14.36316349434917
IRIDIUM 44              
1 25078U 97077B   25124.56702525  .00000692  00000+0  21285-3 0  9995
2 25078  86.3971 239.6511 0003188 130.1359 230.0120 14.40205981437452
IRIDIUM 45              
1 25104U 97082A   25124.58431953  .00021535  00000+0  79602-3 0  9992
2 25104  86.3582  69.0347 0123116 133.7515 227.4000 15.20635345445411
IRIDIUM 24              
1 25105U 97082B   25124.45734616  .00000804  00000+0  23870-3 0  9993
2 25105  86.3869  98.8511 0009866 213.2142 146.8440 14.42052396436917
IRIDIUM 51              
1 25262U 98018A   25124.57742203  .00049802  00000+0  11930-2 0  9995
2 25262  86.3830  77.3735 0096032  59.2710 301.7958 15.36464659440328
IRIDIUM 57              
1 25273U 98019B   25124.54738629  .00000490  00000+0  16228-3 0  9998
2 25273  86.3987 163.5413 0002241  93.8116 266.3337 14.35863865418521
